#aV2006 10 16  0  0   .00000000      96 DD+AD WGS84 FIT  NGA
## 1397  86400.00000000   900.00000000 54024  .0000000000000
+   30     1  2  3  4  5  6  7  8  9 10 11 13 14 15 16 17 18
+         19 20 21 22 23 24 25 26 27 28 29 30 31  0  0  0  0
+          0  0  0  0  0  0  0  0  0  0  0  0  0  0  0  0  0
+          0  0  0  0  0  0  0  0  0  0  0  0  0  0  0  0  0
+          0  0  0  0  0  0  0  0  0  0  0  0  0  0  0  0  0
++         0  0  0  0  0  0  0  0  0  0  0  0  0  0  0  0  0
++         0  0  0  0  0  0  0  0  0  0  0  0  0  0  0  0  0
++         0  0  0  0  0  0  0  0  0  0  0  0  0  0  0  0  0
++         0  0  0  0  0  0  0  0  0  0  0  0  0  0  0  0  0
++         0  0  0  0  0  0  0  0  0  0  0  0  0  0  0  0  0
%c cc cc ccc ccc cccc cccc cccc cccc ccccc ccccc ccccc ccccc
%c cc cc ccc ccc cccc cccc cccc cccc ccccc ccccc ccccc ccccc
%f  0.0000000  0.000000000  0.00000000000  0.000000000000000
%f  0.0000000  0.000000000  0.00000000000  0.000000000000000
%i    0    0    0    0      0      0      0      0         0
%i    0    0    0    0      0      0      0      0         0
/*      NGA, ST. LOUIS,MO.                                  
/*   EPHEMERIS COMPUTED FROM  3 DAYS OF DATA                
/* CCCCCCCCCCCCCCCCCCCCCCCCCCCCCCCCCCCCCCCCCCCCCCCCCCCCCCCCC
/* CCCCCCCCCCCCCCCCCCCCCCCCCCCCCCCCCCCCCCCCCCCCCCCCCCCCCCCCC
*  2006 10 16  4 45   .00000000                                                 
P  1 -14231.283152  16510.229153 -14929.799133     82.832920                    
V  1   3196.186884 -19080.630460 -23889.569083       .021452                    
P  2  21898.000265 -12830.251733   7171.467019     45.201393                    
V  2  10041.496599     50.487462 -29820.108001       .037647                    
P  3 -11472.404796  20258.800020  12297.152890    294.975296                    
V  3  -1713.513173 -16388.900554  25347.127149       .673664                    
P  4  25925.633647  -4617.216640  -4759.164814    324.539520                    
V  4  -4806.010488   4497.524956 -30473.734538       .049756                    
P  5  -7376.304619 -20136.112681 -15998.053928    363.312178                    
V  5  17264.780928  10146.679188 -20870.348536       .030418                    
P  6  -9088.383625 -18965.629700  16377.898612    578.995342                    
V  6   5727.422731 -19874.548419 -20127.919052      -.086963                    
P  7 -16193.916891   5152.080671  20768.289037    512.938541                    
V  7   2720.473502 -25559.590538   8515.754254      -.058845                    
P  8  23443.573197   2142.586297  12570.380802    -83.145135                    
V  8 -14915.244749   6034.329432  26076.079963      -.012237                    
P  9   5184.380734 -17012.701135 -20225.996303     40.459943                    
V  9  23315.857895  -7601.955168  12980.782450       .016504                    
P 10  10518.131391 -10602.093154  21870.482989     91.216677                    
V 10  20559.553325  18954.931580   -393.328011       .006533                    
P 11   -812.865440  18007.719402 -19515.815359    355.366692                    
V 11 -22988.833454   9908.940545  10415.332168       .018458                    
P 13   7766.495770  17950.811279  17898.512006    103.687555                    
V 13  -6239.510376  21976.990949 -19197.120075       .035365                    
P 14 -14819.157945    -92.949043 -21960.683778     -3.372648                    
V 14   5752.356328 -27400.553939  -3822.793232       .008808                    
P 15 -24164.336374  -2045.357836  11186.835125    -20.358505                    
V 15  13269.896327  -5720.465090  26862.704228      -.122362                    
P 16 -13444.313114   8054.113139  21535.132741     82.502125                    
V 16 -19840.510949 -18524.744658  -5357.026742       .035643                    
P 17  15347.365197    629.320514 -21667.172897     92.698820                    
V 17  -5267.859639  27001.058924  -3051.991511      -.010880                    
P 18 -19689.931997 -18058.648408   -970.305878   -251.019539                    
V 18    885.110335  -2891.720715  31403.991014      -.006778                    
P 19  -8287.410853  25109.997915   2095.433665     24.774893                    
V 19  -2186.725100  -3224.396322  31603.521828       .035201                    
P 20  10180.548071  20925.774227 -12917.699407    -22.051817                    
V 20 -13828.314843  -8878.231883 -25422.492344       .001471                    
P 21 -18977.953742  -7559.286339  17342.672470     57.327837                    
V 21  20337.008708  -7767.201516  18417.668153       .016777                    
P 22 -21617.641471  -8606.650864 -12668.899754    142.224241                    
V 22  -9925.198275 -13235.571895  25575.015324       .026869                    
P 23   1006.725574  24948.035910   8684.821635    138.834736                    
V 23  -4679.823499  10471.490071 -29432.686110       .005247                    
P 24  26058.883238  -4889.165426  -3229.519190     44.367366                    
V 24  -3459.143355   3685.109872 -31149.975399       .032337                    
P 25 -24089.180918  11369.285119    929.676004    381.497658                    
V 25  -1789.444823  -2314.692707 -31519.288548       .143206                    
P 26   7685.134813 -24899.679746   2728.292646   -295.340355                    
V 26   1360.140564   4443.845535  32559.576229      -.155583                    
P 27  16326.878015   8420.121065  19902.842481     73.034262                    
V 27 -21768.613953   9814.485702  13850.910077       .020140                    
P 28  22096.798095  11821.292124  -9015.640368     16.442648                    
V 28   7036.144703   9718.470759  28685.791273      -.008536                    
P 29   9698.583609 -23446.352923   7512.843176     77.866734                    
V 29    193.006248   9505.561267  30628.900254       .498907                    
P 30 -17323.832208 -19506.484869  -5599.789766     13.305368                    
V 30   7144.119244   1903.726775 -30254.284119       .012362                    
P 31 -25229.862141   8352.654700   -264.024929    -74.581457                    
V 31   -383.097753  -2877.701161 -31689.478373       .138538                    
EOF
